[{"OBJECT_NAME":"STARLINK-3822","OBJECT_ID":"2022-041AC","EPOCH":"2026-03-09T12:29:36.528288","MEAN_MOTION":15.08843112,"ECCENTRICITY":0.00014699,"INCLINATION":53.2165,"RA_OF_ASC_NODE":109.8809,"ARG_OF_PERICENTER":93.4985,"MEAN_ANOMALY":266.6175,"EPHEMERIS_TYPE":0,"CLASSIFICATION_TYPE":"U","NORAD_CAT_ID":52287,"ELEMENT_SET_NO":999,"REV_AT_EPOCH":21434,"BSTAR":1.481397e-5,"MEAN_MOTION_DOT":-5.2e-7,"MEAN_MOTION_DDOT":0},{"OBJECT_NAME":"TITAN 34D TRANSTAGE DEB","OBJECT_ID":"1988-077S","EPOCH":"2026-03-09T01:09:21.792096","MEAN_MOTION":4.55042192,"ECCENTRICITY":0.55096831,"INCLINATION":27.4133,"RA_OF_ASC_NODE":343.6244,"ARG_OF_PERICENTER":290.4025,"MEAN_ANOMALY":20.3665,"EPHEMERIS_TYPE":0,"CLASSIFICATION_TYPE":"U","NORAD_CAT_ID":25587,"ELEMENT_SET_NO":999,"REV_AT_EPOCH":11005,"BSTAR":0.00014647197,"MEAN_MOTION_DOT":2.0e-8,"MEAN_MOTION_DDOT":0}]
